[{"OBJECT_NAME":"STARLINK-4322","OBJECT_ID":"2022-077AM","EPOCH":"2026-03-09T11:04:22.522656","MEAN_MOTION":15.01263442,"ECCENTRICITY":0.00023461,"INCLINATION":97.6044,"RA_OF_ASC_NODE":249.9874,"ARG_OF_PERICENTER":125.0708,"MEAN_ANOMALY":235.0737,"EPHEMERIS_TYPE":0,"CLASSIFICATION_TYPE":"U","NORAD_CAT_ID":53078,"ELEMENT_SET_NO":999,"REV_AT_EPOCH":20088,"BSTAR":3.7429789e-5,"MEAN_MOTION_DOT":4.22e-6,"MEAN_MOTION_DDOT":0},{"OBJECT_NAME":"CZ-4C R\/B","OBJECT_ID":"2024-186B","EPOCH":"2026-03-09T22:51:12.491424","MEAN_MOTION":15.07425891,"ECCENTRICITY":0.00475116,"INCLINATION":97.8722,"RA_OF_ASC_NODE":96.5934,"ARG_OF_PERICENTER":122.4234,"MEAN_ANOMALY":238.1602,"EPHEMERIS_TYPE":0,"CLASSIFICATION_TYPE":"U","NORAD_CAT_ID":61572,"ELEMENT_SET_NO":999,"REV_AT_EPOCH":7672,"BSTAR":0.00027865777,"MEAN_MOTION_DOT":4.262e-5,"MEAN_MOTION_DDOT":0}]
